{
"type": "FeatureCollection",
"name": "libraries",
"features": [
{ "type": "Feature", "properties": { "Name": "African American History Research Center at the Gregory School", "Address": "1300 Victor St. Houston, TX 77019", "ZIP": 77019, "System": "HPL" }, "geometry": { "type": "Point", "coordinates": [ -95.380438992465002, 29.754126998480999 ] } },
{ "type": "Feature", "properties": { "Name": "Alief-David M. Henington Regional Library", "Address": "11903 Bellaire Blvd, Houston, TX 77072", "ZIP": 77072, "System": "HPL" }, "geometry": { "type": "Point", "coordinates": [ -95.588834982174006, 29.702751003067 ] } },
{ "type": "Feature", "properties": { "Name": "Barbara Bush Literacy Plaza at the Houston Public Library", "Address": "500 McKinney St. Houston, TX 77002", "ZIP": 77002, "System": "HPL" }, "geometry": { "type": "Point", "coordinates": [ -95.369969995399003, 29.759434000477 ] } },
{ "type": "Feature", "properties": { "Name": "BOOKLINK at One Allen Center", "Address": "500 Dallas St. Houston, TX 77002", "ZIP": 77002, "System": "HPL" }, "geometry": { "type": "Point", "coordinates": [ -95.370471987580004, 29.757603979557 ] } },
{ "type": "Feature", "properties": { "Name": "Bracewell Neighborhood Library", "Address": "9002 Kingspoint Rd. Houston, TX 77075", "ZIP": 77075, "System": "HPL" }, "geometry": { "type": "Point", "coordinates": [ -95.245466965831, 29.601537007653 ] } },
{ "type": "Feature", "properties": { "Name": "Carnegie Neighborhood Library & Center for Learning", "Address": "1050 Quitman St. Houston, TX 77009", "ZIP": 77009, "System": "HPL" }, "geometry": { "type": "Point", "coordinates": [ -95.358532972334999, 29.78208600999 ] } },
{ "type": "Feature", "properties": { "Name": "Central Library Jesse H. Jones Building", "Address": "500 McKinney St. Houston, TX 77002", "ZIP": 77002, "System": "HPL" }, "geometry": { "type": "Point", "coordinates": [ -95.369969995399003, 29.759434000477 ] } },
{ "type": "Feature", "properties": { "Name": "Collier Regional Library", "Address": "6200 Pinemont Dr. Houston, TX 77092", "ZIP": 77092, "System": "HPL" }, "geometry": { "type": "Point", "coordinates": [ -95.482717992497001, 29.840664993897001 ] } },
{ "type": "Feature", "properties": { "Name": "Family History Research Center at the Clayton Library Campus", "Address": "5300 Caroline St. Houston, TX 77004", "ZIP": 77004, "System": "HPL" }, "geometry": { "type": "Point", "coordinates": [ -95.386083030787006, 29.726167986973 ] } },
{ "type": "Feature", "properties": { "Name": "Flores Neighborhood Library", "Address": "110 North Milby St. Houston, TX 77003", "ZIP": 77003, "System": "HPL" }, "geometry": { "type": "Point", "coordinates": [ -95.334841020095993, 29.750209003571001 ] } },
{ "type": "Feature", "properties": { "Name": "Freed-Montrose Neighborhood Library", "Address": "4100 Montrose Blvd. Houston, TX 77006", "ZIP": 77006, "System": "HPL" }, "geometry": { "type": "Point", "coordinates": [ -95.391794962524997, 29.735787981066998 ] } },
{ "type": "Feature", "properties": { "Name": "Heights Neighborhood Library", "Address": "1302 Heights Blvd. Houston, TX 77008", "ZIP": 77008, "System": "HPL" }, "geometry": { "type": "Point", "coordinates": [ -95.397256023900994, 29.794721980483999 ] } },
{ "type": "Feature", "properties": { "Name": "Hillendahl Neighborhood Library", "Address": "2436 Gessner Rd. Houston, TX 77080", "ZIP": 77080, "System": "HPL" }, "geometry": { "type": "Point", "coordinates": [ -95.544787997168001, 29.815618987109001 ] } },
{ "type": "Feature", "properties": { "Name": "Houston History Research Center at the Julia Ideson Building", "Address": "550 McKinney St. Houston, TX 77002", "ZIP": 77002, "System": "HPL" }, "geometry": { "type": "Point", "coordinates": [ -95.369172038217002, 29.758921991921 ] } },
{ "type": "Feature", "properties": { "Name": "HPL Southwest Express", "Address": "6400 High Star Dr. Houston, TX 77074", "ZIP": 77074, "System": "HPL" }, "geometry": { "type": "Point", "coordinates": [ -95.496206989276999, 29.711002986743999 ] } },
{ "type": "Feature", "properties": { "Name": "Johnson Neighborhood Library", "Address": "3517 Reed Rd. Houston, TX 77051", "ZIP": 77051, "System": "HPL" }, "geometry": { "type": "Point", "coordinates": [ -95.370941960891003, 29.658775012781 ] } },
{ "type": "Feature", "properties": { "Name": "Jungman Neighborhood Library", "Address": "5830 Westheimer Rd. Houston, TX 77057", "ZIP": 77057, "System": "HPL" }, "geometry": { "type": "Point", "coordinates": [ -95.481322992352005, 29.738469980535001 ] } },
{ "type": "Feature", "properties": { "Name": "Kendall Neighborhood Library", "Address": "609 N Eldridge Pkwy. Houston, TX 77079", "ZIP": 77079, "System": "HPL" }, "geometry": { "type": "Point", "coordinates": [ -95.620573980556998, 29.773051994747 ] } },
{ "type": "Feature", "properties": { "Name": "Looscan Neighborhood Library", "Address": "2510 Willowick Rd. Houston, TX 77027", "ZIP": 77027, "System": "HPL" }, "geometry": { "type": "Point", "coordinates": [ -95.442028965540999, 29.742819014817002 ] } },
{ "type": "Feature", "properties": { "Name": "Mancuso Neighborhood Library", "Address": "6767 Bellfort Ave. Houston, TX 77087", "ZIP": 77087, "System": "HPL" }, "geometry": { "type": "Point", "coordinates": [ -95.310279026306006, 29.668141999126998 ] } },
{ "type": "Feature", "properties": { "Name": "McCrane-Kashmere Gardens Neighborhood Library", "Address": "5411 Pardee St. Houston, TX 77026", "ZIP": 77026, "System": "HPL" }, "geometry": { "type": "Point", "coordinates": [ -95.316638962978999, 29.806243996046 ] } },
{ "type": "Feature", "properties": { "Name": "McGovern-Stella Link Regional Library", "Address": "7405 Stella Link Rd. Houston, TX 77025", "ZIP": 77025, "System": "HPL" }, "geometry": { "type": "Point", "coordinates": [ -95.439706004895001, 29.698121007390998 ] } },
{ "type": "Feature", "properties": { "Name": "Melcher Neighborhood Library", "Address": "7200 Keller St. Houston, TX 77012", "ZIP": 77012, "System": "HPL" }, "geometry": { "type": "Point", "coordinates": [ -95.289498025220993, 29.706195001354001 ] } },
{ "type": "Feature", "properties": { "Name": "Moody Neighborhood Library", "Address": "9525 Irvington Blvd. Houston, TX 77022", "ZIP": 77022, "System": "HPL" }, "geometry": { "type": "Point", "coordinates": [ -95.362830038816995, 29.847568999905 ] } },
{ "type": "Feature", "properties": { "Name": "Oak Forest Neighborhood Library", "Address": "1349 West 43rd St. Houston, TX 77018", "ZIP": 77018, "System": "HPL" }, "geometry": { "type": "Point", "coordinates": [ -95.433968005438004, 29.827574011789 ] } },
{ "type": "Feature", "properties": { "Name": "Parent Resource Library Children's Museum of Houston", "Address": "1500 Binz St. Houston, TX 77004", "ZIP": 77004, "System": "HPL" }, "geometry": { "type": "Point", "coordinates": [ -95.385253976743996, 29.722609994803999 ] } },
{ "type": "Feature", "properties": { "Name": "Park Place Regional Library", "Address": "8145 Park Place Blvd. Houston, TX 77017", "ZIP": 77017, "System": "HPL" }, "geometry": { "type": "Point", "coordinates": [ -95.275172011589007, 29.687790982279999 ] } },
{ "type": "Feature", "properties": { "Name": "Pleasantville Neighborhood Library", "Address": "1520 Gellhorn Dr. Houston, TX 77029", "ZIP": 77029, "System": "HPL" }, "geometry": { "type": "Point", "coordinates": [ -95.273209975694002, 29.763850006165001 ] } },
{ "type": "Feature", "properties": { "Name": "Ring Neighborhood Library", "Address": "8835 Long Point Rd. Houston, TX 77055", "ZIP": 77055, "System": "HPL" }, "geometry": { "type": "Point", "coordinates": [ -95.508035028123999, 29.802657002490999 ] } },
{ "type": "Feature", "properties": { "Name": "Robinson-Westchase Neighborhood Library", "Address": "3223 Wilcrest Dr. Houston, TX 77042", "ZIP": 77042, "System": "HPL" }, "geometry": { "type": "Point", "coordinates": [ -95.571075992459001, 29.728949982547 ] } },
{ "type": "Feature", "properties": { "Name": "Scenic Woods Regional Library", "Address": "10677 Homestead Rd. Houston, TX 77016", "ZIP": 77016, "System": "HPL" }, "geometry": { "type": "Point", "coordinates": [ -95.301102015796005, 29.869843991412999 ] } },
{ "type": "Feature", "properties": { "Name": "Shepard-Acres Homes Neighborhood Library", "Address": "8501 West Montgomery Rd. Houston, TX 77088", "ZIP": 77088, "System": "HPL" }, "geometry": { "type": "Point", "coordinates": [ -95.437330992629995, 29.871009997963 ] } },
{ "type": "Feature", "properties": { "Name": "Smith Neighborhood Library", "Address": "3624 Scott St. Houston, TX 77004", "ZIP": 77004, "System": "HPL" }, "geometry": { "type": "Point", "coordinates": [ -95.351719993795996, 29.722724994515001 ] } },
{ "type": "Feature", "properties": { "Name": "Stanaker Neighborhood Library", "Address": "611 S Sgt Macario Garcia St. Houston, TX 77011", "ZIP": 77011, "System": "HPL" }, "geometry": { "type": "Point", "coordinates": [ -95.303065979528995, 29.740066020627999 ] } },
{ "type": "Feature", "properties": { "Name": "Stimley-Blue Ridge Neighborhood Library", "Address": "7007 West Fuqua St. Houston, TX 77489", "ZIP": 77489, "System": "HPL" }, "geometry": { "type": "Point", "coordinates": [ -95.491632720810003, 29.598805579473002 ] } },
{ "type": "Feature", "properties": { "Name": "TECHLink Alief", "Address": "11903 Bellaire Blvd, Houston, TX 77072", "ZIP": 77072, "System": "HPL" }, "geometry": { "type": "Point", "coordinates": [ -95.588834982174006, 29.702751003067 ] } },
{ "type": "Feature", "properties": { "Name": "TECHLink Dixon", "Address": "8002 Hirsch Rd. Houston, TX 77016", "ZIP": 77016, "System": "HPL" }, "geometry": { "type": "Point", "coordinates": [ -95.328744023726003, 29.833329990429 ] } },
{ "type": "Feature", "properties": { "Name": "TECHLink Scenic Woods", "Address": "10677 Homestead Rd. Houston, TX 77016", "ZIP": 77016, "System": "HPL" }, "geometry": { "type": "Point", "coordinates": [ -95.301102015796005, 29.869843991412999 ] } },
{ "type": "Feature", "properties": { "Name": "Tuttle Neighborhood Library", "Address": "702 Kress St. Houston, TX 77020", "ZIP": 77020, "System": "HPL" }, "geometry": { "type": "Point", "coordinates": [ -95.307539292165998, 29.776266411007999 ] } },
{ "type": "Feature", "properties": { "Name": "Vinson Neighborhood Library", "Address": "3810 West Fuqua St. Houston, TX 77045", "ZIP": 77045, "System": "HPL" }, "geometry": { "type": "Point", "coordinates": [ -95.433609008524996, 29.614149005904 ] } },
{ "type": "Feature", "properties": { "Name": "Walter Neighborhood Library", "Address": "7660 Clarewood Dr. Houston, TX 77036", "ZIP": 77036, "System": "HPL" }, "geometry": { "type": "Point", "coordinates": [ -95.520879037455003, 29.709800979918999 ] } },
{ "type": "Feature", "properties": { "Name": "Walker Neighborhood Library", "Address": "5505 Belrose, Houston, Texas 77035", "ZIP": 77035, "System": "HPL" }, "geometry": { "type": "Point", "coordinates": [ -95.482184987273996, 29.653428993026001 ] } },
{ "type": "Feature", "properties": { "Name": "Young Neighborhood Library", "Address": "5107 Griggs Rd. Houston, TX 77021", "ZIP": 77021, "System": "HPL" }, "geometry": { "type": "Point", "coordinates": [ -95.337006987695005, 29.698507999861 ] } },
{ "type": "Feature", "properties": { "Name": "Aldine Branch Library", "Address": "11331 Airline Dr Houston, TX 77037", "ZIP": 77037, "System": "HCPL" }, "geometry": { "type": "Point", "coordinates": [ -95.407736001260005, 29.920763005466 ] } },
{ "type": "Feature", "properties": { "Name": "Atascocita Branch Library", "Address": "19520 Pinehurst Trail Drive Humble, TX 77346", "ZIP": 77346, "System": "HCPL" }, "geometry": { "type": "Point", "coordinates": [ -95.154130959488995, 30.004583001139 ] } },
{ "type": "Feature", "properties": { "Name": "Baldwin Boettcher Branch Library @ Mercer Park", "Address": "22306 Aldine Westfield Road Humble, TX 77338", "ZIP": 77338, "System": "HCPL" }, "geometry": { "type": "Point", "coordinates": [ -95.380634039352003, 30.038686995412998 ] } },
{ "type": "Feature", "properties": { "Name": "Barbara Bush Branch Library", "Address": "6817 Cypresswood Drive Spring, TX 77379", "ZIP": 77379, "System": "HCPL" }, "geometry": { "type": "Point", "coordinates": [ -95.510198984067003, 30.012435000396 ] } },
{ "type": "Feature", "properties": { "Name": "Clear Lake City-County Freeman Branch Library", "Address": "16616 Diana Lane Houston, TX 77062", "ZIP": 77062, "System": "HCPL" }, "geometry": { "type": "Point", "coordinates": [ -95.119350000805994, 29.557943986523 ] } },
{ "type": "Feature", "properties": { "Name": "Crosby Edith Fae Cook Cole Branch Library", "Address": "135 Hare Road Crosby, TX 77532", "ZIP": 77532, "System": "HCPL" }, "geometry": { "type": "Point", "coordinates": [ -95.067101063769002, 29.920389119566 ] } },
{ "type": "Feature", "properties": { "Name": "Evelyn Meador Branch Library", "Address": "2400 North Meyer Avenue Seabrook, TX 77586", "ZIP": 77586, "System": "HCPL" }, "geometry": { "type": "Point", "coordinates": [ -95.016568002764004, 29.570360979797002 ] } },
{ "type": "Feature", "properties": { "Name": "Fairbanks Branch Library", "Address": "7122 Gessner Road Houston, TX 77040", "ZIP": 77040, "System": "HCPL" }, "geometry": { "type": "Point", "coordinates": [ -95.54286602677, 29.872363004774002 ] } },
{ "type": "Feature", "properties": { "Name": "Galena Park Branch Library", "Address": "1500 Keene Street Galena Park, TX 77547", "ZIP": 77547, "System": "HCPL" }, "geometry": { "type": "Point", "coordinates": [ -95.237019013258006, 29.743478000044998 ] } },
{ "type": "Feature", "properties": { "Name": "Harris County Robert W. Hainsworth Law Library", "Address": "1019 Congress Avenue Houston, TX 77002", "ZIP": 77002, "System": "HCPL" }, "geometry": { "type": "Point", "coordinates": [ -95.359943981916004, 29.762155981624002 ] } },
{ "type": "Feature", "properties": { "Name": "HCPL TMC Library", "Address": "1133 John Freeman Boulevard Houston, TX 77030", "ZIP": 77030, "System": "HCPL" }, "geometry": { "type": "Point", "coordinates": [ -95.396674990373, 29.712053993583002 ] } },
{ "type": "Feature", "properties": { "Name": "High Meadows Branch Library", "Address": "4500 Aldine Mail Route Houston, TX 77039", "ZIP": 77039, "System": "HCPL" }, "geometry": { "type": "Point", "coordinates": [ -95.327210973635005, 29.902262007771998 ] } },
{ "type": "Feature", "properties": { "Name": "Jacinto City Branch Library", "Address": "921 Akron Street Houston, TX 77029", "ZIP": 77029, "System": "HCPL" }, "geometry": { "type": "Point", "coordinates": [ -95.239937005211004, 29.772486006735001 ] } },
{ "type": "Feature", "properties": { "Name": "Katherine Tyra Branch Library @ Bear Creek", "Address": "16719 Clay Road Houston, TX 77084", "ZIP": 77084, "System": "HCPL" }, "geometry": { "type": "Point", "coordinates": [ -95.655328910459005, 29.834755089685999 ] } },
{ "type": "Feature", "properties": { "Name": "Katy Branch Library", "Address": "5414 Franz Road Katy, TX 77493", "ZIP": 77493, "System": "HCPL" }, "geometry": { "type": "Point", "coordinates": [ -95.817885992963994, 29.802125003097 ] } },
{ "type": "Feature", "properties": { "Name": "Kingwood Branch Library", "Address": "4400 Bens View Lane Kingwood, TX 77339", "ZIP": 77339, "System": "HCPL" }, "geometry": { "type": "Point", "coordinates": [ -95.181600970765999, 30.041948016751999 ] } },
{ "type": "Feature", "properties": { "Name": "La Porte Branch Library", "Address": "600 South Broadway Street La Porte, TX 77571", "ZIP": 77571, "System": "HCPL" }, "geometry": { "type": "Point", "coordinates": [ -95.019726974432999, 29.658589982269 ] } },
{ "type": "Feature", "properties": { "Name": "Lone Star College-CyFair Library", "Address": "9191 Barker Cypress Road Cypress, TX 77433", "ZIP": 77433, "System": "HCPL" }, "geometry": { "type": "Point", "coordinates": [ -95.697000006072997, 29.912864989561001 ] } },
{ "type": "Feature", "properties": { "Name": "Lone Star College-Tomball Community Library", "Address": "30555 Tomball Parkway Tomball, TX 77375", "ZIP": 77375, "System": "HCPL" }, "geometry": { "type": "Point", "coordinates": [ -95.642823536223005, 30.113004595227 ] } },
{ "type": "Feature", "properties": { "Name": "Maud Smith Marks Branch Library", "Address": "1815 Westgreen Boulevard Katy, TX 77450", "ZIP": 77450, "System": "HCPL" }, "geometry": { "type": "Point", "coordinates": [ -95.733261963228003, 29.757685996479001 ] } },
{ "type": "Feature", "properties": { "Name": "North Channel Branch Library", "Address": "15741 Wallisville Road Houston, TX 77049", "ZIP": 77049, "System": "HCPL" }, "geometry": { "type": "Point", "coordinates": [ -95.156992960329006, 29.811021010303001 ] } },
{ "type": "Feature", "properties": { "Name": "Northwest Branch Library", "Address": "11355 Regency Green Drive Cypress, TX 77429", "ZIP": 77429, "System": "HCPL" }, "geometry": { "type": "Point", "coordinates": [ -95.592178020435995, 29.961768994090001 ] } },
{ "type": "Feature", "properties": { "Name": "Octavia Fields Branch Library", "Address": "1503 South Houston Avenue Humble, TX 77338", "ZIP": 77338, "System": "HCPL" }, "geometry": { "type": "Point", "coordinates": [ -95.260033959178003, 29.980460009529001 ] } },
{ "type": "Feature", "properties": { "Name": "Parker Williams Branch Library", "Address": "10851 Scarsdale Boulevard Houston, TX 77089", "ZIP": 77089, "System": "HCPL" }, "geometry": { "type": "Point", "coordinates": [ -95.215983034678004, 29.584707990095001 ] } },
{ "type": "Feature", "properties": { "Name": "South Houston Branch Library", "Address": "607 Avenue A South Houston, TX 77587", "ZIP": 77587, "System": "HCPL" }, "geometry": { "type": "Point", "coordinates": [ -95.224239963676993, 29.666932993412999 ] } },
{ "type": "Feature", "properties": { "Name": "Spring Branch Memorial Branch Library", "Address": "930 Corbindale Road Houston, TX 77024", "ZIP": 77024, "System": "HCPL" }, "geometry": { "type": "Point", "coordinates": [ -95.512438041861998, 29.780980981784001 ] } },
{ "type": "Feature", "properties": { "Name": "Stratford Branch Library", "Address": "509 Stratford Street Highlands, TX 77562", "ZIP": 77562, "System": "HCPL" }, "geometry": { "type": "Point", "coordinates": [ -95.062919031700005, 29.821692412874 ] } },
{ "type": "Feature", "properties": { "Name": "West University Branch Library", "Address": "6108 Auden Street Houston, TX 77005", "ZIP": 77005, "System": "HCPL" }, "geometry": { "type": "Point", "coordinates": [ -95.437641039229007, 29.716317993457 ] } }
]
}
